*******************************************************************************
Ephemeris / WWW_USER Sun Apr 28 18:31:04 2019 Pasadena, USA      / Horizons    
*******************************************************************************
Target body name: Mercury (199)                   {source: DE431mx}
Center body name: Earth (399)                     {source: DE431mx}
Center-site name: GEOCENTRIC
*******************************************************************************
Start time      : A.D. 2010-Jan-01 00:00:00.0000 UT      
Stop  time      : A.D. 2030-Jan-01 00:00:00.0000 UT      
Step-size       : 2880 minutes
*******************************************************************************
Target pole/equ : IAU_MERCURY                     {West-longitude positive}
Target radii    : 2439.7 x 2439.7 x 2439.7 km     {Equator, meridian, pole}    
Center geodetic : 0.00000000,0.00000000,0.0000000 {E-lon(deg),Lat(deg),Alt(km)}
Center cylindric: 0.00000000,0.00000000,0.0000000 {E-lon(deg),Dxy(km),Dz(km)}
Center pole/equ : High-precision EOP model        {East-longitude positive}
Center radii    : 6378.1 x 6378.1 x 6356.8 km     {Equator, meridian, pole}    
Target primary  : Sun
Vis. interferer : MOON (R_eq= 1737.400) km        {source: DE431mx}
Rel. light bend : Sun, EARTH                      {source: DE431mx}
Rel. lght bnd GM: 1.3271E+11, 3.9860E+05 km^3/s^2                              
Atmos refraction: YES (Earth refraction model)
RA format       : DEG
Time format     : CAL 
EOP file        : eop.190426.p190718                                           
EOP coverage    : DATA-BASED 1962-JAN-20 TO 2019-APR-26. PREDICTS-> 2019-JUL-17
Units conversion: 1 au= 149597870.700 km, c= 299792.458 km/s, 1 day= 86400.0 s 
Table cut-offs 1: Elevation (-90.0deg=NO ),Airmass (>38.000=NO), Daylight (NO )
Table cut-offs 2: Solar elongation (  0.0,180.0=NO ),Local Hour Angle( 0.0=NO )
Table cut-offs 3: RA/DEC angular rate (     0.0=NO )                           
******************************************************************************************************
 Date__(UT)__HR:MN      APmag  S-brt               r        rdot            delta      deldot    S-T-O
******************************************************************************************************
$$SOE
 2021-Oct-02 00:00       1.80   4.37  0.380731590752  -9.9760960 0.69346802022552 -18.6391860 135.4190
 2021-Oct-04 00:00       2.58   4.68  0.369140327889 -10.0562476 0.67468509103380 -13.6499143 145.2713
 2021-Oct-06 00:00       3.63   4.99  0.357591021436  -9.8964944 0.66247544617893  -7.2551977 156.0386
 2021-Oct-08 00:00       5.01   5.01  0.346386429249  -9.4525661 0.65843693955988   0.4646885 167.3280
 2021-Oct-10 00:00       n.a.   n.a.  0.335879077377  -8.6836585 0.66393668524539   9.1833822 174.2734
 2021-Oct-12 00:00       4.55   4.93  0.326462573734  -7.5610685 0.67981635559948  18.3251039 164.4011
 2021-Oct-14 00:00       2.99   4.59  0.318551170133  -6.0797220 0.70614871340936  27.1572753 151.3942
 2021-Oct-16 00:00       1.76   4.04  0.312545393103  -4.2701860 0.74214603213860  34.9509790 138.1351
 2021-Oct-18 00:00       0.83   3.55  0.308785787768  -2.2062981 0.78625879477780  41.1374251 125.1083
 2021-Oct-20 00:00       0.18   3.17  0.307503239314  -0.0026152 0.83642231062054  45.4016064 112.5824
 2021-Oct-22 00:00      -0.25   2.90  0.308779785443   2.2012150 0.89036603595770  47.6983369 100.7439
 2021-Oct-24 00:00      -0.53   2.73  0.312533609761   4.2655213 0.94590346849978  48.2066820  89.7198
 2021-Oct-26 00:00      -0.69   2.62  0.318534007713   6.0756851 1.00114640168527  47.2492584  79.5848
 2021-Oct-28 00:00      -0.78   2.55  0.326440555613   7.5577917 1.05461935262255  45.2045072  70.3644
 2021-Oct-30 00:00      -0.82   2.51  0.335852797906   8.6812027 1.10528042060983  42.4353871  62.0422
 2021-Nov-01 00:00      -0.84   2.47  0.346356526069   9.4509374 1.15247573815494  39.2464432  54.5698
 2021-Nov-03 00:00      -0.85   2.45  0.357558166721   9.8956629 1.19586083142450  35.8683984  47.8778
 2021-Nov-05 00:00      -0.85   2.42  0.369105225707  10.0561614 1.23531611813018  32.4616909  41.8868
 2021-Nov-07 00:00      -0.86   2.38  0.380694970316   9.9766914 1.27087253533263  29.1289628  36.5144
 2021-Nov-09 00:00      -0.87   2.34  0.392075057214   9.6996251 1.30265304058594  25.9292093  31.6815
 2021-Nov-11 00:00      -0.89   2.30  0.403039573652   9.2627249 1.33082971532372  22.8904321  27.3144
 2021-Nov-13 00:00      -0.92   2.25  0.413423030845   8.6981803 1.35559424677222  20.0201057  23.3469
 2021-Nov-15 00:00      -0.96   2.19  0.423093890935   8.0326592 1.37713905273490  17.3130983  19.7200
 2021-Nov-17 00:00      -1.00   2.13  0.431948479172   7.2878580 1.39564605537089  14.7570582  16.3822
 2021-Nov-19 00:00      -1.05   2.06  0.439905660045   6.4812373 1.41128046756415  12.3358257  13.2887
 2021-Nov-21 00:00      -1.11   1.99  0.446902384374   5.6267759 1.42418770375333  10.0315290  10.4018
 2021-Nov-23 00:00      -1.18   1.91  0.452890075951   4.7356633 1.43449218630342   7.8258311   7.6926
 2021-Nov-25 00:00      -1.26   1.82  0.457831767359   3.8169029 1.44229724406729   5.7006098   5.1497
 2021-Nov-27 00:00      -1.34   1.74  0.461699879042   2.8778236 1.44768555926102   3.6382541   2.8367
 2021-Nov-29 00:00       n.a.   n.a.  0.464474541812   1.9245122 1.45071981535817   1.6217450   1.4999
 2021-Dec-01 00:00      -1.31   1.76  0.466142378634   0.9621790 1.45144340222587  -0.3652928   2.8622
 2021-Dec-03 00:00      -1.21   1.86  0.466695680468  -0.0045229 1.44988125509061  -2.3383938   5.0446
 2021-Dec-05 00:00      -1.12   1.96  0.466131930362  -0.9712107 1.44604097592750  -4.3120222   7.3530
 2021-Dec-07 00:00      -1.03   2.04  0.464453648788  -1.9335004 1.43991397320641  -6.2998718   9.7246
 2021-Dec-09 00:00      -0.96   2.13  0.461668551383  -2.8867347 1.43147583826788  -8.3157949  12.1641
 2021-Dec-11 00:00      -0.90   2.20  0.457790028179  -3.8256956 1.42068573635342 -10.3744036  14.6910
 2021-Dec-13 00:00      -0.85   2.26  0.452837971604  -4.7442857 1.40748557414962 -12.4908913  17.3302
 2021-Dec-15 00:00      -0.80   2.32  0.446839999418  -5.6351601 1.39179958967002 -14.6805728  20.1111
 2021-Dec-17 00:00      -0.77   2.38  0.439833138164  -6.4892943 1.37353447051869 -16.9584323  23.0669
 2021-Dec-19 00:00      -0.74   2.42  0.431866051738  -7.2954709 1.35258004885398 -19.3385344  26.2350
 2021-Dec-21 00:00      -0.72   2.46  0.423001915369  -8.0396744 1.32881088493592 -21.8330283  29.6582
 2021-Dec-23 00:00      -0.71   2.50  0.413322041390  -8.7043972 1.30208937339811 -24.4504594  33.3854
 2021-Dec-25 00:00      -0.71   2.52  0.402930347425  -9.2678839 1.27227134869962 -27.1930728  37.4722
 2021-Dec-27 00:00      -0.71   2.55  0.391958698164  -9.7033948 1.23921558301001 -30.0526917  41.9824
 2021-Dec-29 00:00      -0.72   2.57  0.380573012315  -9.9786571 1.20279913985477 -33.0045931  46.9881
 2021-Dec-31 00:00      -0.73   2.58  0.368979752415 -10.0558200 1.16294130144176 -35.9986768  52.5699
 2022-Jan-02 00:00      -0.73   2.60  0.357431938604  -9.8924312 1.11963953436020 -38.9474421  58.8161
 2022-Jan-04 00:00      -0.73   2.62  0.346233092311  -9.4441869 1.07302097429885 -41.7114128  65.8196
 2022-Jan-06 00:00      -0.69   2.65  0.335736552625  -8.6703357 1.02341108720484 -44.0845861  73.6730
 2022-Jan-08 00:00      -0.61   2.71  0.326336677262  -7.5423698 0.97141701786285 -45.7845509  82.4596
 2022-Jan-10 00:00      -0.46   2.81  0.318448209596  -6.0556046 0.91801604018781 -46.4552544  92.2413
 2022-Jan-12 00:00      -0.19   2.97  0.312471648745  -4.2411961 0.86462772172254 -45.6946553 103.0414
 2022-Jan-14 00:00       0.25   3.24  0.308746745265  -2.1736862 0.81313366966159 -43.1192627 114.8252
 2022-Jan-16 00:00       0.93   3.62  0.307502717771   0.0317314 0.76579946548593 -38.4677706 127.4727
 2022-Jan-18 00:00       1.91   4.12  0.308819217805   2.2350595 0.72506185517691 -31.7252719 140.7353
 2022-Jan-20 00:00       3.22   4.64  0.312611733629   4.2966996 0.69318146054117 -23.2218864 154.1096
 2022-Jan-22 00:00       4.70   4.86  0.318647079346   6.1024954 0.67182807657125 -13.6398293 166.0895
 2022-Jan-24 00:00       5.13   4.81  0.326582991410   7.5792073 0.66173647963885  -3.8815456 169.0407
 2022-Jan-26 00:00       3.94   4.95  0.336018007546   8.6968737 0.66258504687290   5.1700161 159.6222
 2022-Jan-28 00:00       2.73   4.66  0.346537695280   9.4610458 0.67315818739936  12.8793357 148.2180
 2022-Jan-30 00:00       1.83   4.31  0.357748839823   9.9007261 0.69170492547308  18.9575608 137.3304
 2022-Feb-01 00:00       1.18   4.02  0.369299649730  10.0568557 0.71632454709851  23.4173770 127.4030
 2022-Feb-03 00:00       0.74   3.80  0.380888237798   9.9737260 0.74524962715318  26.4554949 118.5081
 2022-Feb-05 00:00       0.44   3.65  0.392263112210   9.6936666 0.77699035875497  28.3398282 110.5959
 2022-Feb-07 00:00       0.25   3.54  0.403219141146   9.2543611 0.81037029286202  29.3364019 103.5702
 2022-Feb-09 00:00       0.12   3.47  0.413591513051   8.6879093 0.84450118518009  29.6750469  97.3215
 2022-Feb-11 00:00       0.05   3.42  0.423249257117   8.0208925 0.87873395560511  29.5398294  91.7426
 2022-Feb-13 00:00       0.00   3.38  0.432089163011   7.2749298 0.91260657016046  29.0715737  86.7353
 2022-Feb-15 00:00      -0.03   3.35  0.440030470576   6.4674168 0.94579792003267  28.3748121  82.2129
 2022-Feb-17 00:00      -0.04   3.33  0.447010432007   5.6122792 0.97809034219386  27.5253999  78.0998
 2022-Feb-19 00:00      -0.05   3.31  0.452980712869   4.7206639 1.00934053535315  26.5773089  74.3306
 2022-Feb-21 00:00      -0.06   3.29  0.457904540640   3.8015414 1.03945762843051  25.5682012  70.8483
 2022-Feb-23 00:00      -0.06   3.27  0.461754494658   2.8622156 1.06838697234960  24.5237783  67.6036
 2022-Feb-25 00:00      -0.07   3.24  0.464510837792   1.9087549 1.09609829475486  23.4610146  64.5526
